[{"OBJECT_NAME":"STARLINK-36398","OBJECT_ID":"2026-016B","EPOCH":"2026-03-09T17:37:07.225824","MEAN_MOTION":15.75210385,"ECCENTRICITY":0.00016459,"INCLINATION":97.2838,"RA_OF_ASC_NODE":129.1197,"ARG_OF_PERICENTER":61.7806,"MEAN_ANOMALY":298.3626,"EPHEMERIS_TYPE":0,"CLASSIFICATION_TYPE":"U","NORAD_CAT_ID":67562,"ELEMENT_SET_NO":999,"REV_AT_EPOCH":680,"BSTAR":0.0015929964,"MEAN_MOTION_DOT":0.00244625,"MEAN_MOTION_DDOT":0},{"OBJECT_NAME":"CZ-2F DEB","OBJECT_ID":"2026-024G","EPOCH":"2026-03-09T22:26:56.614272","MEAN_MOTION":15.01116214,"ECCENTRICITY":0.03207922,"INCLINATION":49.8328,"RA_OF_ASC_NODE":21.451,"ARG_OF_PERICENTER":268.4479,"MEAN_ANOMALY":87.9702,"EPHEMERIS_TYPE":0,"CLASSIFICATION_TYPE":"U","NORAD_CAT_ID":67720,"ELEMENT_SET_NO":999,"REV_AT_EPOCH":459,"BSTAR":0.0038278463,"MEAN_MOTION_DOT":0.00157764,"MEAN_MOTION_DDOT":0}]
